ONEWEB-0589             
1 54655U 22166P   24211.41905690  .00000131  00000+0  28517-3 0  9996
2 54655  87.9288  20.9008 0002802  92.1656 267.9799 13.21825150 80688
ONEWEB-0590             
1 54656U 22166Q   24211.74549379  .00000015  00000+0  38858-5 0  9993
2 54656  87.9294  20.8443 0001782  95.6947 264.4390 13.21826032 81179
ONEWEB-0591             
1 54657U 22166R   24211.37961519  .00000003  00000+0 -24632-4 0  9999
2 54657  87.9289  20.9114 0001993  92.0565 268.0797 13.21825813 80694
ONEWEB-0592             
1 54658U 22166S   24211.83694885 -.00000093  00000+0 -25554-3 0  9993
2 54658  87.9286  20.7844 0002077  94.3433 265.7938 13.21826615 81102
ONEWEB-0593             
1 54659U 22166T   24211.40642179  .00000212  00000+0  48136-3 0  9998
2 54659  87.9288  20.8968 0002079  93.0127 267.1245 13.21826558 80686
ONEWEB-0594             
1 54660U 22166U   24211.87952972  .00000055  00000+0  10145-3 0  9990
2 54660  87.9293  20.8041 0001798  87.4830 272.6510 13.21826724 81223
ONEWEB-0595             
1 54661U 22166V   24211.40327970 -.00000027  00000+0 -96860-4 0  9994
2 54661  87.9290  20.8850 0001619  94.0509 266.0810 13.21826413 80671
ONEWEB-0596             
1 54662U 22166W   24211.45216081  .00000025  00000+0  28232-4 0  9994
2 54662  87.9292  20.8817 0002126  97.0603 263.0773 13.21827486 80686
ONEWEB-0597             
1 54663U 22166X   24211.73601936  .00000071  00000+0  13942-3 0  9995
2 54663  87.9293  20.8271 0002174  88.8636 271.2747 13.21827038 81191
ONEWEB-0600             
1 54664U 22166Y   24211.87006389  .00000068  00000+0  13291-3 0  9995
2 54664  87.9287  20.8384 0002006  88.8491 271.2872 13.21827150 81186
ONEWEB-0601             
1 54665U 22166Z   24211.86218549 -.00000017  00000+0 -72246-4 0  9990
2 54665  87.9294  20.8074 0002350  95.0790 265.0613 13.21826112 81366
ONEWEB-0602             
1 54666U 22166AA  24211.44900829 -.00000017  00000+0 -71962-4 0  9998
2 54666  87.9294  20.8929 0002207  91.1266 269.0121 13.21825562 80693
ONEWEB-0603             
1 54667U 22166AB  24211.37804255  .00000059  00000+0  11048-3 0  9999
2 54667  87.9296  20.9094 0002251  90.9892 269.1500 13.21825692 80619
ONEWEB-0604             
1 54668U 22166AC  24211.44111421  .00000091  00000+0  18936-3 0  9993
2 54668  87.9288  20.8735 0001862  81.9413 278.1933 13.21827916 80585
ONEWEB-0605             
1 54669U 22166AD  24211.43482153  .00000064  00000+0  12428-3 0  9996
2 54669  87.9287  20.9073 0002465  98.0164 262.1250 13.21820261 80652
ONEWEB-0606             
1 54670U 22166AE  24211.38119455 -.00000002  00000+0 -36089-4 0  9998
2 54670  87.9291  20.9105 0001680  91.8910 268.2416 13.21825646 80702
ONEWEB-0607             
1 54671U 22166AF  24211.42377874  .00000138  00000+0  30171-3 0  9998
2 54671  87.9288  20.8782 0002115  89.6674 270.4702 13.21824597 80689
ONEWEB-0608             
1 54672U 22166AG  24211.43008397  .00000174  00000+0  38963-3 0  9998
2 54672  87.9294  20.9009 0002438  95.1155 265.0257 13.21825913 80693
ONEWEB-0610             
1 54673U 22166AH  24211.41116388  .00000116  00000+0  25004-3 0  9995
2 54673  87.9289  20.8975 0002308  95.0886 265.0512 13.21825926 80592
ONEWEB-0611             
1 54674U 22166AJ  24211.48054774  .00000057  00000+0  10714-3 0  9999
2 54674  87.9289  20.8824 0001484  84.5975 275.5328 13.21825887 80599
ONEWEB-0612             
1 54675U 22166AK  24211.87164930  .00000051  00000+0  92096-4 0  9997
2 54675  87.9288  20.7869 0002144  93.7113 266.4266 13.21825512 81100
ONEWEB-0615             
1 54676U 22166AL  24211.47423580 -.00000001  00000+0 -33987-4 0  9994
2 54676  87.9288  20.8907 0002025  84.9813 275.1552 13.21827656 80590
ONEWEB-0655             
1 54677U 22166AM  24211.44742946  .00000069  00000+0  13554-3 0  9991
2 54677  87.9290  20.8984 0002135  79.2906 280.8468 13.21823621 80587
ONEWEB-0659             
1 54678U 22166AN  24211.84324982  .00000040  00000+0  64457-4 0  9990
2 54678  87.9287  20.8258 0001660  94.0098 266.1226 13.21827841 81192
ONEWEB-0685             
1 54679U 22166AP  24211.46634570  .00000058  00000+0  10985-3 0  9991
2 54679  87.9289  20.8908 0002096  87.2884 272.8489 13.21827507 80562
ONEWEB-0712             
1 54680U 22166AQ  24211.38704205  .00000017  00000+0  10002-4 0  9993
2 54680  87.9120   5.7144 0001431  86.0546 274.0748 13.17105630 81559
ONEWEB-0714             
1 54681U 22166AR  24211.47266187  .00000090  00000+0  18641-3 0  9993
2 54681  87.9291  20.8764 0002111  86.6457 273.4918 13.21825138 80680
ONEWEB-0532             
1 55140U 23004A   24211.88658672  .00000056  00000+0  11123-3 0  9995
2 55140  87.9194 142.7222 0002246  92.2534 267.8855 13.17649198 77075
ONEWEB-0533             
1 55141U 23004B   24211.49323343 -.00000358  00000+0 -10298-2 0  9995
2 55141  87.8959 127.5968 0002084  75.2535 284.8824 13.12444147 77857
ONEWEB-0541             
1 55142U 23004C   24211.36691607  .00000226  00000+0  60122-3 0  9997
2 55142  87.8993 157.9701 0002118  81.0412 279.0956 13.11418734 75790
ONEWEB-0543             
1 55143U 23004D   24211.41964946  .00000009  00000+0 -91313-5 0  9991
2 55143  87.9134 112.4693 0001925  66.4224 293.7110 13.18686271 79056
ONEWEB-0544             
1 55144U 23004E   24211.48917169  .00000002  00000+0 -28218-4 0  9990
2 55144  87.9135 112.4408 0001740  75.2157 284.9167 13.18683112 79066
ONEWEB-0560             
1 55145U 23004F   24211.78637071  .00000001  00000+0 -29660-4 0  9996
2 55145  87.9141 112.3351 0001578  68.3276 291.8024 13.18688379 79119
ONEWEB-0565             
1 55146U 23004G   24211.78005278  .00000015  00000+0  64565-5 0  9993
2 55146  87.9136 112.4125 0001403  93.8357 266.2936 13.18685857 79109
ONEWEB-0567             
1 55147U 23004H   24211.47022613  .00000035  00000+0  55290-4 0  9998
2 55147  87.9136 112.4279 0001396  79.6161 280.5129 13.18686555 79060
ONEWEB-0569             
1 55148U 23004J   24211.42819692  .00000120  00000+0  29258-3 0  9994
2 55148  87.8909  97.0890 0000750  63.9627 296.1579 13.13471865 79895
ONEWEB-0570             
1 55149U 23004K   24211.45758220  .00000006  00000+0 -17621-4 0  9993
2 55149  87.9140 112.4281 0002158  99.0361 261.1016 13.18685563 79052
ONEWEB-0571             
1 55150U 23004L   24211.45124832 -.00000317  00000+0 -83695-3 0  9990
2 55150  87.9141 112.4355 0001143 106.1241 254.0017 13.18685174 79068
ONEWEB-0572             
1 55151U 23004M   24211.53759766  .00000070  00000+0  14818-3 0  9995
2 55151  87.9193 142.7985 0002006  84.8125 275.3235 13.17651405 76922
ONEWEB-0573             
1 55152U 23004N   24211.44493472  .00000064  00000+0  12929-3 0  9999
2 55152  87.9135 112.4558 0001478 108.6219 251.5074 13.18685723 79055
ONEWEB-0588             
1 55153U 23004P   24211.43861451  .00000005  00000+0 -19556-4 0  9995
2 55153  87.9140 112.4259 0001961  95.2298 264.9058 13.18685765 79051
ONEWEB-0598             
1 55154U 23004Q   24211.57375669  .00000586  00000+0  16174-2 0  9996
2 55154  87.8990 157.9687 0001442  89.0302 271.0991 13.11409462 75775
ONEWEB-0599             
1 55155U 23004R   24211.87850642  .00000085  00000+0  18701-3 0  9992
2 55155  87.9198 142.7172 0001889  76.3751 283.7591 13.17650772 76977
ONEWEB-0614             
1 55156U 23004S   24211.56866708 -.00000459  00000+0 -13309-2 0  9994
2 55156  87.8993 157.9741 0002486  85.0748 275.0664 13.11417121 75716
ONEWEB-0616             
1 55157U 23004T   24211.84457594  .00000034  00000+0  55538-4 0  9994
2 55157  87.9193 142.7300 0002154  45.1383 314.9924 13.17648716 77184
ONEWEB-0617             
1 55158U 23004U   24211.86198963  .00000042  00000+0  81749-4 0  9991
2 55158  87.8988 157.9097 0002292  91.3860 268.7530 13.11416431 75787
ONEWEB-0618             
1 55159U 23004V   24211.39765393  .00000173  00000+0  63689-4 0  9995
2 55159  86.9033  78.3618 0014517 140.2411 219.9848 14.26811678 81363
ONEWEB-0619             
1 55160U 23004W   24211.57314928  .00000111  00000+0  25235-3 0  9997
2 55160  87.9194 142.7608 0002430  67.8907 292.2482 13.17649526 77042
ONEWEB-0620             
1 55161U 23004X   24211.55171654  .00000165  00000+0  43076-3 0  9995
2 55161  87.8990 157.9824 0002092  94.2092 265.9275 13.11413748 75704
ONEWEB-0621             
1 55162U 23004Y   24211.57883878 -.00000490  00000+0 -14176-2 0  9997
2 55162  87.8988 157.9447 0002375  78.6104 281.5291 13.11418039 75684
ONEWEB-0622             
1 55163U 23004Z   24211.88910802 -.00000565  00000+0 -16297-2 0  9999
2 55163  87.8992 157.9001 0002621  98.6715 261.4710 13.11417131 75720
ONEWEB-0623             
1 55164U 23004AA  24211.87204476  .00000066  00000+0  13574-3 0  9992
2 55164  87.9194 142.7555 0002758  91.3796 268.7651 13.17648834 77078
ONEWEB-0624             
1 55165U 23004AB  24211.53554576  .00000352  00000+0  94220-3 0  9990
2 55165  87.8958 127.5967 0002170  79.9495 280.1878 13.12444162 77858
ONEWEB-0625             
1 55166U 23004AC  24211.86073566  .00000015  00000+0  48132-5 0  9991
2 55166  87.9193 142.7561 0002164  71.2957 288.8409 13.17651542 77066
ONEWEB-0626             
1 55167U 23004AD  24211.54729708  .00000028  00000+0  38591-4 0  9994
2 55167  87.9192 142.8184 0001677  90.8318 269.3006 13.17651085 77029
ONEWEB-0627             
1 55168U 23004AE  24211.83974006  .00000014  00000+0  30279-5 0  9991
2 55168  87.9195 142.7621 0002494  93.2850 266.8567 13.17650554 77062
ONEWEB-0628             
1 55169U 23004AF  24211.82102487  .00000034  00000+0  60225-4 0  9992
2 55169  87.8954 127.5269 0002797  85.3289 274.8159 13.12442379 77872
ONEWEB-0629             
1 55170U 23004AG  24211.53193996 -.00000044  00000+0 -14554-3 0  9993
2 55170  87.9189 142.8118 0002538  76.2035 283.9379 13.17648483 77020
ONEWEB-0631             
1 55171U 23004AH  24211.43229425  .00000035  00000+0  55782-4 0  9997
2 55171  87.9145 112.3354 0001738  98.7802 261.3527 13.18686732 79037
